{"type": "FeatureCollection", "features": [ {"type": "Feature", "properties": {"norad_id": 67083, "name": "STARLINK-36170", "group": "last-30-days", "lat": 21.950760128610327, "lon": -142.6114828882176, "alt_km": 349.01435559721085, "timestamp": "2025-12-27T03:58:42.934864+00:00", "meta": {"OBJECT_NAME": "STARLINK-36170", "OBJECT_ID": "2025-298J", "EPOCH": "2025-12-26T20:00:01.999008", "MEAN_MOTION": 15.74763781, "ECCENTRICITY": 0.0003724, "INCLINATION": 69.9989, "RA_OF_ASC_NODE": 209.8866, "ARG_OF_PERICENTER": 270.9102, "MEAN_ANOMALY": 29.4143, "EPHEMERIS_TYPE": 0, "CLASSIFICATION_TYPE": "U", "NORAD_CAT_ID": 67083, "ELEMENT_SET_NO": 999, "REV_AT_EPOCH": 324, "BSTAR": -0.013364, "MEAN_MOTION_DOT": -0.01740136, "MEAN_MOTION_DDOT": 0}, "tle": {"line1": "1 67083U 25298J   25360.83335647 -.01740136  00000+0 -13364-1 0  9996", "line2": "2 67083  69.9989 209.8866 0003724 270.9102  29.4143 15.74763781  3243"}}, "geometry": {"type": "Point", "coordinates": [-142.6114828882176, 21.950760128610327]}}, {"type": "Feature", "properties": {"norad_id": 67084, "name": "STARLINK-36166", "group": "last-30-days", "lat": 23.787296074999347, "lon": -141.81642773862322, "alt_km": 348.6986526976252, "timestamp": "2025-12-27T03:58:42.934873+00:00", "meta": {"OBJECT_NAME": "STARLINK-36166", "OBJECT_ID": "2025-298K", "EPOCH": "2025-12-26T20:00:01.999008", "MEAN_MOTION": 15.74759422, "ECCENTRICITY": 0.0003661, "INCLINATION": 69.9985, "RA_OF_ASC_NODE": 209.8839, "ARG_OF_PERICENTER": 272.9212, "MEAN_ANOMALY": 29.3836, "EPHEMERIS_TYPE": 0, "CLASSIFICATION_TYPE": "U", "NORAD_CAT_ID": 67084, "ELEMENT_SET_NO": 999, "REV_AT_EPOCH": 318, "BSTAR": -0.013337, "MEAN_MOTION_DOT": -0.01736676, "MEAN_MOTION_DDOT": 0}, "tle": {"line1": "1 67084U 25298K   25360.83335647 -.01736676  00000+0 -13337-1 0  9991", "line2": "2 67084  69.9985 209.8839 0003661 272.9212  29.3836 15.74759422  3182"}}, "geometry": {"type": "Point", "coordinates": [-141.81642773862322, 23.787296074999347]}}, {"type": "Feature", "properties": {"norad_id": 67085, "name": "STARLINK-35794", "group": "last-30-days", "lat": 25.60494558778567, "lon": -141.00467451380098, "alt_km": 348.5760759114137, "timestamp": "2025-12-27T03:58:42.934882+00:00", "meta": {"OBJECT_NAME": "STARLINK-35794", "OBJECT_ID": "2025-298L", "EPOCH": "2025-12-26T20:00:01.999008", "MEAN_MOTION": 15.74759533, "ECCENTRICITY": 0.0003758, "INCLINATION": 69.9985, "RA_OF_ASC_NODE": 209.8819, "ARG_OF_PERICENTER": 271.4466, "MEAN_ANOMALY": 32.8203, "EPHEMERIS_TYPE": 0, "CLASSIFICATION_TYPE": "U", "NORAD_CAT_ID": 67085, "ELEMENT_SET_NO": 999, "REV_AT_EPOCH": 324, "BSTAR": -0.013373, "MEAN_MOTION_DOT": -0.01740884, "MEAN_MOTION_DDOT": 0}, "tle": {"line1": "1 67085U 25298L   25360.83335647 -.01740884  00000+0 -13373-1 0  9998", "line2": "2 67085  69.9985 209.8819 0003758 271.4466  32.8203 15.74759533  3240"}}, "geometry": {"type": "Point", "coordinates": [-141.00467451380098, 25.60494558778567]}}, {"type": "Feature", "properties": {"norad_id": 67086, "name": "STARLINK-35841", "group": "last-30-days", "lat": 27.560137567387418, "lon": -140.10094582137944, "alt_km": 348.3305470126106, "timestamp": "2025-12-27T03:58:42.934892+00:00", "meta": {"OBJECT_NAME": "STARLINK-35841", "OBJECT_ID": "2025-298M", "EPOCH": "2025-12-26T20:00:01.999008", "MEAN_MOTION": 15.74746527, "ECCENTRICITY": 0.0003664, "INCLINATION": 69.9988, "RA_OF_ASC_NODE": 209.8799, "ARG_OF_PERICENTER": 271.4358, "MEAN_ANOMALY": 34.9592, "EPHEMERIS_TYPE": 0, "CLASSIFICATION_TYPE": "U", "NORAD_CAT_ID": 67086, "ELEMENT_SET_NO": 999, "REV_AT_EPOCH": 324, "BSTAR": -0.013326, "MEAN_MOTION_DOT": -0.01734543, "MEAN_MOTION_DDOT": 0}, "tle": {"line1": "1 67086U 25298M   25360.83335647 -.01734543  00000+0 -13326-1 0  9992", "line2": "2 67086  69.9988 209.8799 0003664 271.4358  34.9592 15.74746527  3240"}}, "geometry": {"type": "Point", "coordinates": [-140.10094582137944, 27.560137567387418]}}, {"type": "Feature", "properties": {"norad_id": 67087, "name": "STARLINK-35842", "group": "last-30-days", "lat": 5.7782274498222295, "lon": -148.9217620797137, "alt_km": 364.22279436270037, "timestamp": "2025-12-27T03:58:42.934903+00:00", "meta": {"OBJECT_NAME": "STARLINK-35842", "OBJECT_ID": "2025-298N", "EPOCH": "2025-12-26T20:00:01.999008", "MEAN_MOTION": 15.70644408, "ECCENTRICITY": 0.0003764, "INCLINATION": 69.9997, "RA_OF_ASC_NODE": 209.8997, "ARG_OF_PERICENTER": 267.3998, "MEAN_ANOMALY": 20.9029, "EPHEMERIS_TYPE": 0, "CLASSIFICATION_TYPE": "U", "NORAD_CAT_ID": 67087, "ELEMENT_SET_NO": 999, "REV_AT_EPOCH": 324, "BSTAR": -0.022992, "MEAN_MOTION_DOT": -0.02496052, "MEAN_MOTION_DDOT": 0}, "tle": {"line1": "1 67087U 25298N   25360.83335647 -.02496052  00000+0 -22992-1 0  9993", "line2": "2 67087  69.9997 209.8997 0003764 267.3998  20.9029 15.70644408  3247"}}, "geometry": {"type": "Point", "coordinates": [-148.9217620797137, 5.7782274498222295]}}, {"type": "Feature", "properties": {"norad_id": 67088, "name": "STARLINK-35882", "group": "last-30-days", "lat": 31.165721673550628, "lon": -138.33808763463264, "alt_km": 347.9484817447774, "timestamp": "2025-12-27T03:58:42.934912+00:00", "meta": {"OBJECT_NAME": "STARLINK-35882", "OBJECT_ID": "2025-298P", "EPOCH": "2025-12-26T20:00:01.999008", "MEAN_MOTION": 15.74746237, "ECCENTRICITY": 0.0003814, "INCLINATION": 69.9989, "RA_OF_ASC_NODE": 209.8749, "ARG_OF_PERICENTER": 271.7363, "MEAN_ANOMALY": 38.5795, "EPHEMERIS_TYPE": 0, "CLASSIFICATION_TYPE": "U", "NORAD_CAT_ID": 67088, "ELEMENT_SET_NO": 999, "REV_AT_EPOCH": 324, "BSTAR": -0.013406, "MEAN_MOTION_DOT": -0.01743858, "MEAN_MOTION_DDOT": 0}, "tle": {"line1": "1 67088U 25298P   25360.83335647 -.01743858  00000+0 -13406-1 0  9992", "line2": "2 67088  69.9989 209.8749 0003814 271.7363  38.5795 15.74746237  3247"}}, "geometry": {"type": "Point", "coordinates": [-138.33808763463264, 31.165721673550628]}}, {"type": "Feature", "properties": {"norad_id": 67089, "name": "STARLINK-35763", "group": "last-30-days", "lat": 33.08559491919522, "lon": -137.3395967399293, "alt_km": 347.6299224095037, "timestamp": "2025-12-27T03:58:42.934921+00:00", "meta": {"OBJECT_NAME": "STARLINK-35763", "OBJECT_ID": "2025-298Q", "EPOCH": "2025-12-26T20:00:01.999008", "MEAN_MOTION": 15.74692802, "ECCENTRICITY": 0.0003496, "INCLINATION": 69.9985, "RA_OF_ASC_NODE": 209.8712, "ARG_OF_PERICENTER": 272.0008, "MEAN_ANOMALY": 40.4561, "EPHEMERIS_TYPE": 0, "CLASSIFICATION_TYPE": "U", "NORAD_CAT_ID": 67089, "ELEMENT_SET_NO": 999, "REV_AT_EPOCH": 324, "BSTAR": -0.01303, "MEAN_MOTION_DOT": -0.01696778, "MEAN_MOTION_DDOT": 0}, "tle": {"line1": "1 67089U 25298Q   25360.83335647 -.01696778  00000+0 -13030-1 0  9994", "line2": "2 67089  69.9985 209.8712 0003496 272.0008  40.4561 15.74692802  3241"}}, "geometry": {"type": "Point", "coordinates": [-137.3395967399293, 33.08559491919522]}}, {"type": "Feature", "properties": {"norad_id": 67090, "name": "STARLINK-36060", "group": "last-30-days", "lat": 34.79355582428862, "lon": -136.40889109371432, "alt_km": 347.51089531416983, "timestamp": "2025-12-27T03:58:42.934929+00:00", "meta": {"OBJECT_NAME": "STARLINK-36060", "OBJECT_ID": "2025-298R", "EPOCH": "2025-12-26T20:00:01.999008", "MEAN_MOTION": 15.74734423, "ECCENTRICITY": 0.0003873, "INCLINATION": 69.9984, "RA_OF_ASC_NODE": 209.8693, "ARG_OF_PERICENTER": 272.4559, "MEAN_ANOMALY": 41.8386, "EPHEMERIS_TYPE": 0, "CLASSIFICATION_TYPE": "U", "NORAD_CAT_ID": 67090, "ELEMENT_SET_NO": 999, "REV_AT_EPOCH": 318, "BSTAR": -0.013322, "MEAN_MOTION_DOT": -0.01733523, "MEAN_MOTION_DDOT": 0}, "tle": {"line1": "1 67090U 25298R   25360.83335647 -.01733523  00000+0 -13322-1 0  9990", "line2": "2 67090  69.9984 209.8693 0003873 272.4559  41.8386 15.74734423  3183"}}, "geometry": {"type": "Point", "coordinates": [-136.40889109371432, 34.79355582428862]}}, {"type": "Feature", "properties": {"norad_id": 67091, "name": "STARLINK-36097", "group": "last-30-days", "lat": 36.676244869156235, "lon": -135.33218832822652, "alt_km": 347.31353140469946, "timestamp": "2025-12-27T03:58:42.934938+00:00", "meta": {"OBJECT_NAME": "STARLINK-36097", "OBJECT_ID": "2025-298S", "EPOCH": "2025-12-26T20:00:01.999008", "MEAN_MOTION": 15.74734066, "ECCENTRICITY": 0.0003718, "INCLINATION": 69.9988, "RA_OF_ASC_NODE": 209.8675, "ARG_OF_PERICENTER": 270.5127, "MEAN_ANOMALY": 45.865, "EPHEMERIS_TYPE": 0, "CLASSIFICATION_TYPE": "U", "NORAD_CAT_ID": 67091, "ELEMENT_SET_NO": 999, "REV_AT_EPOCH": 324, "BSTAR": -0.013429, "MEAN_MOTION_DOT": -0.01745589, "MEAN_MOTION_DDOT": 0}, "tle": {"line1": "1 67091U 25298S   25360.83335647 -.01745589  00000+0 -13429-1 0  9994", "line2": "2 67091  69.9988 209.8675 0003718 270.5127  45.8650 15.74734066  3244"}}, "geometry": {"type": "Point", "coordinates": [-135.33218832822652, 36.676244869156235]}}, {"type": "Feature", "properties": {"norad_id": 67092, "name": "STARLINK-35792", "group": "last-30-days", "lat": 38.373502529691244, "lon": -134.31085452456028, "alt_km": 347.1681858770771, "timestamp": "2025-12-27T03:58:42.934947+00:00", "meta": {"OBJECT_NAME": "STARLINK-35792", "OBJECT_ID": "2025-298T", "EPOCH": "2025-12-26T20:00:01.999008", "MEAN_MOTION": 15.74736417, "ECCENTRICITY": 0.0003869, "INCLINATION": 69.9987, "RA_OF_ASC_NODE": 209.8647, "ARG_OF_PERICENTER": 270.4964, "MEAN_ANOMALY": 47.7573, "EPHEMERIS_TYPE": 0, "CLASSIFICATION_TYPE": "U", "NORAD_CAT_ID": 67092, "ELEMENT_SET_NO": 999, "REV_AT_EPOCH": 318, "BSTAR": -0.013433, "MEAN_MOTION_DOT": -0.01746328, "MEAN_MOTION_DDOT": 0}, "tle": {"line1": "1 67092U 25298T   25360.83335647 -.01746328  00000+0 -13433-1 0  9992", "line2": "2 67092  69.9987 209.8647 0003869 270.4964  47.7573 15.74736417  3188"}}, "geometry": {"type": "Point", "coordinates": [-134.31085452456028, 38.373502529691244]}}]}